{
  "type": "FeatureCollection",
  "features": [
    {
      "type": "Feature",
      "properties": {
        "norad_id": 66740,
        "name": "TRANSPORTER-15CC",
        "group": "last-30-days",
        "lat": -12.351288297075609,
        "lon": 74.60026258823571,
        "alt_km": 518.2046688678538,
        "timestamp": "2025-12-27T10:28:57.514570+00:00",
        "meta_object_name": "TRANSPORTER-15CC",
        "meta_object_id": "2025-276CC",
        "meta_epoch": "2025-12-27T04:12:30.113856",
        "meta_mean_motion": 15.17779487,
        "meta_eccentricity": 0.0002387,
        "meta_inclination": 97.4404,
        "meta_ra_of_asc_node": 72.7035,
        "meta_arg_of_pericenter": 215.394,
        "meta_mean_anomaly": 144.7135,
        "meta_ephemeris_type": 0,
        "meta_classification_type": "U",
        "meta_norad_cat_id": 66740,
        "meta_element_set_no": 999,
        "meta_rev_at_epoch": 431,
        "meta_bstar": 0.00046827,
        "meta_mean_motion_dot": 9.4e-05,
        "meta_mean_motion_ddot": 0,
        "tle_line1": "1 66740U 25276CC  25361.17534854  .00009400  00000+0  46827-3 0  9991",
        "tle_line2": "2 66740  97.4404  72.7035 0002387 215.3940 144.7135 15.17779487  4310"
      },
      "geometry": {
        "type": "Point",
        "coordinates": [
          74.60026258823571,
          -12.351288297075609
        ]
      }
    },
    {
      "type": "Feature",
      "properties": {
        "norad_id": 66741,
        "name": "TRANSPORTER-15CD",
        "group": "last-30-days",
        "lat": -19.2879940620308,
        "lon": 75.57011737619138,
        "alt_km": 518.7766567322897,
        "timestamp": "2025-12-27T10:28:57.514581+00:00",
        "meta_object_name": "TRANSPORTER-15CD",
        "meta_object_id": "2025-276CD",
        "meta_epoch": "2025-12-27T04:14:19.159296",
        "meta_mean_motion": 15.17661463,
        "meta_eccentricity": 0.0001299,
        "meta_inclination": 97.4403,
        "meta_ra_of_asc_node": 72.6932,
        "meta_arg_of_pericenter": 203.7154,
        "meta_mean_anomaly": 156.402,
        "meta_ephemeris_type": 0,
        "meta_classification_type": "U",
        "meta_norad_cat_id": 66741,
        "meta_element_set_no": 999,
        "meta_rev_at_epoch": 431,
        "meta_bstar": 0.00023096,
        "meta_mean_motion_dot": 4.584e-05,
        "meta_mean_motion_ddot": 0,
        "tle_line1": "1 66741U 25276CD  25361.17661064  .00004584  00000+0  23096-3 0  9997",
        "tle_line2": "2 66741  97.4403  72.6932 0001299 203.7154 156.4020 15.17661463  4311"
      },
      "geometry": {
        "type": "Point",
        "coordinates": [
          75.57011737619138,
          -19.2879940620308
        ]
      }
    },
    {
      "type": "Feature",
      "properties": {
        "norad_id": 66742,
        "name": "TRANSPORTER-15CE",
        "group": "last-30-days",
        "lat": -9.673864194302503,
        "lon": 74.22683231135588,
        "alt_km": 518.2996551655915,
        "timestamp": "2025-12-27T10:28:57.514591+00:00",
        "meta_object_name": "TRANSPORTER-15CE",
        "meta_object_id": "2025-276CE",
        "meta_epoch": "2025-12-27T04:11:46.906944",
        "meta_mean_motion": 15.17749673,
        "meta_eccentricity": 0.0002054,
        "meta_inclination": 97.4396,
        "meta_ra_of_asc_node": 72.6931,
        "meta_arg_of_pericenter": 174.2178,
        "meta_mean_anomaly": 185.908,
        "meta_ephemeris_type": 0,
        "meta_classification_type": "U",
        "meta_norad_cat_id": 66742,
        "meta_element_set_no": 999,
        "meta_rev_at_epoch": 431,
        "meta_bstar": 0.00035881,
        "meta_mean_motion_dot": 7.179e-05,
        "meta_mean_motion_ddot": 0,
        "tle_line1": "1 66742U 25276CE  25361.17484846  .00007179  00000+0  35881-3 0  9997",
        "tle_line2": "2 66742  97.4396  72.6931 0002054 174.2178 185.9080 15.17749673  4313"
      },
      "geometry": {
        "type": "Point",
        "coordinates": [
          74.22683231135588,
          -9.673864194302503
        ]
      }
    },
    {
      "type": "Feature",
      "properties": {
        "norad_id": 66743,
        "name": "TRANSPORTER-15CF",
        "group": "last-30-days",
        "lat": -31.850422817732724,
        "lon": 77.59703596762562,
        "alt_km": 519.7242029854915,
        "timestamp": "2025-12-27T10:28:57.514601+00:00",
        "meta_object_name": "TRANSPORTER-15CF",
        "meta_object_id": "2025-276CF",
        "meta_epoch": "2025-12-27T04:17:38.961024",
        "meta_mean_motion": 15.1757527,
        "meta_eccentricity": 9.31e-05,
        "meta_inclination": 97.4396,
        "meta_ra_of_asc_node": 72.6874,
        "meta_arg_of_pericenter": 198.1721,
        "meta_mean_anomaly": 161.9479,
        "meta_ephemeris_type": 0,
        "meta_classification_type": "U",
        "meta_norad_cat_id": 66743,
        "meta_element_set_no": 999,
        "meta_rev_at_epoch": 431,
        "meta_bstar": 0.00039743,
        "meta_mean_motion_dot": 7.919e-05,
        "meta_mean_motion_ddot": 0,
        "tle_line1": "1 66743U 25276CF  25361.17892316  .00007919  00000+0  39743-3 0  9996",
        "tle_line2": "2 66743  97.4396  72.6874 0000931 198.1721 161.9479 15.17575270  4317"
      },
      "geometry": {
        "type": "Point",
        "coordinates": [
          77.59703596762562,
          -31.850422817732724
        ]
      }
    },
    {
      "type": "Feature",
      "properties": {
        "norad_id": 66744,
        "name": "TRANSPORTER-15CG",
        "group": "last-30-days",
        "lat": 0.5113431833038654,
        "lon": 72.84742740966563,
        "alt_km": 523.0211788401684,
        "timestamp": "2025-12-27T10:28:57.514611+00:00",
        "meta_object_name": "TRANSPORTER-15CG",
        "meta_object_id": "2025-276CG",
        "meta_epoch": "2025-12-27T04:09:28.914048",
        "meta_mean_motion": 15.19395116,
        "meta_eccentricity": 0.0024458,
        "meta_inclination": 97.3864,
        "meta_ra_of_asc_node": 72.656,
        "meta_arg_of_pericenter": 224.2782,
        "meta_mean_anomaly": 135.6497,
        "meta_ephemeris_type": 0,
        "meta_classification_type": "U",
        "meta_norad_cat_id": 66744,
        "meta_element_set_no": 999,
        "meta_rev_at_epoch": 431,
        "meta_bstar": 0.00074148,
        "meta_mean_motion_dot": 0.00015769,
        "meta_mean_motion_ddot": 0,
        "tle_line1": "1 66744U 25276CG  25361.17325132  .00015769  00000+0  74148-3 0  9994",
        "tle_line2": "2 66744  97.3864  72.6560 0024458 224.2782 135.6497 15.19395116  4316"
      },
      "geometry": {
        "type": "Point",
        "coordinates": [
          72.84742740966563,
          0.5113431833038654
        ]
      }
    },
    {
      "type": "Feature",
      "properties": {
        "norad_id": 66745,
        "name": "TRANSPORTER-15CH",
        "group": "last-30-days",
        "lat": -35.80861088490651,
        "lon": 78.35283673629047,
        "alt_km": 520.7478000466399,
        "timestamp": "2025-12-27T10:28:57.514621+00:00",
        "meta_object_name": "TRANSPORTER-15CH",
        "meta_object_id": "2025-276CH",
        "meta_epoch": "2025-12-27T04:18:40.254048",
        "meta_mean_motion": 15.17421746,
        "meta_eccentricity": 0.0001419,
        "meta_inclination": 97.4404,
        "meta_ra_of_asc_node": 72.6902,
        "meta_arg_of_pericenter": 185.272,
        "meta_mean_anomaly": 174.8499,
        "meta_ephemeris_type": 0,
        "meta_classification_type": "U",
        "meta_norad_cat_id": 66745,
        "meta_element_set_no": 999,
        "meta_rev_at_epoch": 431,
        "meta_bstar": 0.00016878,
        "meta_mean_motion_dot": 3.308e-05,
        "meta_mean_motion_ddot": 0,
        "tle_line1": "1 66745U 25276CH  25361.17963257  .00003308  00000+0  16878-3 0  9993",
        "tle_line2": "2 66745  97.4404  72.6902 0001419 185.2720 174.8499 15.17421746  4312"
      },
      "geometry": {
        "type": "Point",
        "coordinates": [
          78.35283673629047,
          -35.80861088490651
        ]
      }
    },
    {
      "type": "Feature",
      "properties": {
        "norad_id": 66746,
        "name": "TRANSPORTER-15CJ",
        "group": "last-30-days",
        "lat": -8.495699038855188,
        "lon": 74.0812567216935,
        "alt_km": 520.2951936963345,
        "timestamp": "2025-12-27T10:28:57.514631+00:00",
        "meta_object_name": "TRANSPORTER-15CJ",
        "meta_object_id": "2025-276CJ",
        "meta_epoch": "2025-12-27T04:11:54.496320",
        "meta_mean_motion": 15.19503354,
        "meta_eccentricity": 0.0013481,
        "meta_inclination": 97.383,
        "meta_ra_of_asc_node": 72.7154,
        "meta_arg_of_pericenter": 189.7683,
        "meta_mean_anomaly": 170.3292,
        "meta_ephemeris_type": 0,
        "meta_classification_type": "U",
        "meta_norad_cat_id": 66746,
        "meta_element_set_no": 999,
        "meta_rev_at_epoch": 431,
        "meta_bstar": 0.0010176,
        "meta_mean_motion_dot": 0.00021633,
        "meta_mean_motion_ddot": 0,
        "tle_line1": "1 66746U 25276CJ  25361.17493630  .00021633  00000+0  10176-2 0  9992",
        "tle_line2": "2 66746  97.3830  72.7154 0013481 189.7683 170.3292 15.19503354  4314"
      },
      "geometry": {
        "type": "Point",
        "coordinates": [
          74.0812567216935,
          -8.495699038855188
        ]
      }
    }
  ]
}